NORAD_CAT_ID,OBJECT_NAME,OBJECT_TYPE,EPOCH,MEAN_MOTION,ECCENTRICITY,INCLINATION,RA_OF_ASC_NODE,ARG_OF_PERICENTER,MEAN_ANOMALY,BSTAR,MEAN_MOTION_DOT,MEAN_MOTION_DDOT,TLE_LINE0,TLE_LINE1,TLE_LINE2,SEMIMAJOR_AXIS,PERIOD,APOGEE,PERIGEE,DECAYED
55404.0,STARLINK-5607,PAYLOAD,2024-01-16 19:15:38,14.98337155,0.0002691,69.9988,238.5043,267.0402,93.0449,-6.1975e-05,-8.32e-06,0.0,0 STARLINK-5607,1 55404U 23014P   24016.80253417 -.00000832  00000-0 -61975-4 0  9998,2 55404  69.9988 238.5043 0002691 267.0402  93.0449 14.98337155 53848,6950.171,96.107,573.906,570.165,0.0
55404.0,STARLINK-5607,PAYLOAD,2024-01-16 22:27:55,14.98334565,0.0002734,69.9989,238.1679,269.5287,90.5559,-9.0366e-05,-1.171e-05,0.0,0 STARLINK-5607,1 55404U 23014P   24016.93605601 -.00001171  00000-0 -90366-4 0  9991,2 55404  69.9989 238.1679 0002734 269.5287  90.5559 14.98334565 54809,6950.179,96.107,573.944,570.144,0.0
55404.0,STARLINK-5607,PAYLOAD,2024-01-17 00:04:03,14.98337888,0.0003127,69.9982,237.9991,275.9238,84.1564,-7.8669e-05,-1.032e-05,0.0,0 STARLINK-5607,1 55404U 23014P   24017.00281326 -.00001032  00000-0 -78669-4 0  9992,2 55404  69.9982 237.9991 0003127 275.9238  84.1564 14.98337888 54817,6950.168,96.106,574.207,569.86,0.0
55404.0,STARLINK-5607,PAYLOAD,2024-01-17 19:17:39,14.98337344,0.0002801,69.9989,235.9786,275.5127,84.5713,-0.00018494,-2.299e-05,0.0,0 STARLINK-5607,1 55404U 23014P   24017.80393291 -.00002299  00000-0 -18494-3 0  9990,2 55404  69.9989 235.9786 0002801 275.5127  84.5713 14.98337344 53990,6950.17,96.107,573.982,570.088,0.0
55404.0,STARLINK-5607,PAYLOAD,2024-01-17 22:29:55,14.98336116,0.0002822,69.999,235.6423,275.9197,84.164,-0.00019084,-2.37e-05,0.0,0 STARLINK-5607,1 55404U 23014P   24017.93745329 -.00002370  00000-0 -19084-3 0  9993,2 55404  69.9990 235.6423 0002822 275.9197  84.1640 14.98336116 54959,6950.174,96.107,574.0,570.078,0.0
55404.0,STARLINK-5607,PAYLOAD,2024-01-18 14:31:16,14.98331207,0.0002963,69.9988,233.9594,276.0578,84.0243,3.0054e-05,2.66e-06,0.0,0 STARLINK-5607,1 55404U 23014P   24018.60504776  .00000266  00000-0  30054-4 0  9998,2 55404  69.9988 233.9594 0002963 276.0578  84.0243 14.98331207 55053,6950.189,96.107,574.113,569.995,0.0
55404.0,STARLINK-5607,PAYLOAD,2024-01-18 19:19:40,14.98331485,0.0002969,69.9989,233.4547,276.5061,83.576,3.3876e-05,3.11e-06,0.0,0 STARLINK-5607,1 55404U 23014P   24018.80532737  .00000311  00000-0  33876-4 0  9994,2 55404  69.9989 233.4547 0002969 276.5061  83.5760 14.98331485 54140,6950.188,96.107,574.117,569.99,0.0
55404.0,STARLINK-5607,PAYLOAD,2024-01-18 22:31:56,14.98332831,0.0002953,69.9988,233.118,276.6092,83.4731,4.8654e-05,4.88e-06,0.0,0 STARLINK-5607,1 55404U 23014P   24018.93884591  .00000488  00000-0  48654-4 0  9991,2 55404  69.9988 233.1180 0002953 276.6092  83.4731 14.98332831 55107,6950.184,96.107,574.102,569.997,0.0
55404.0,STARLINK-5607,PAYLOAD,2024-01-19 14:33:17,14.98327606,0.0002862,69.9991,231.435,275.8338,84.2495,2.1575e-05,1.64e-06,0.0,0 STARLINK-5607,1 55404U 23014P   24019.60644978  .00000164  00000-0  21575-4 0  9993,2 55404  69.9991 231.4350 0002862 275.8338  84.2495 14.98327606 55205,6950.2,96.107,574.054,570.076,0.0
55404.0,STARLINK-5607,PAYLOAD,2024-01-19 19:21:41,14.98327215,0.0002882,69.9991,230.93,275.3843,84.6987,1.2814e-05,6e-07,0.0,0 STARLINK-5607,1 55404U 23014P   24019.80673040  .00000060  00000-0  12814-4 0  9998,2 55404  69.9991 230.9300 0002882 275.3843  84.6987 14.98327215 54296,6950.202,96.107,574.07,570.063,0.0
55404.0,STARLINK-5607,PAYLOAD,2024-01-19 22:33:57,14.98327772,0.0002865,69.999,230.5932,275.1026,84.9806,1.8959e-05,1.33e-06,0.0,0 STARLINK-5607,1 55404U 23014P   24019.94024997  .00000133  00000-0  18959-4 0  9991,2 55404  69.9990 230.5932 0002865 275.1026  84.9806 14.98327772 55252,6950.2,96.107,574.056,570.074,0.0
55404.0,STARLINK-5607,PAYLOAD,2024-01-20 14:35:18,14.98331619,0.0002809,69.9991,228.9102,276.6362,83.4477,-2.194e-05,-3.55e-06,0.0,0 STARLINK-5607,1 55404U 23014P   24020.60784880 -.00000355  00000-0 -21940-4 0  9992,2 55404  69.9991 228.9102 0002809 276.6362  83.4477 14.98331619 55354,6950.188,96.107,574.005,570.101,0.0
55404.0,STARLINK-5607,PAYLOAD,2024-01-20 22:35:58,14.98330529,0.0002836,69.999,228.0686,276.1666,83.917,-3.205e-05,-4.75e-06,0.0,0 STARLINK-5607,1 55404U 23014P   24020.94164940 -.00000475  00000-0 -32050-4 0  9995,2 55404  69.9990 228.0686 0002836 276.1666  83.9170 14.98330529 55403,6950.191,96.107,574.027,570.085,0.0
55404.0,STARLINK-5607,PAYLOAD,2024-01-21 00:12:06,14.98331199,0.0002832,69.9991,227.9003,275.9803,84.1034,-2.3792e-05,-3.77e-06,0.0,0 STARLINK-5607,1 55404U 23014P   24021.00840870 -.00000377  00000-0 -23792-4 0  9990,2 55404  69.9991 227.9003 0002832 275.9803  84.1034 14.98331199 54473,6950.189,96.107,574.022,570.086,0.0
55404.0,STARLINK-5607,PAYLOAD,2024-01-21 22:37:59,14.98332088,0.0002849,69.9989,225.5441,269.7616,90.3217,3.6368e-05,3.41e-06,0.0,0 STARLINK-5607,1 55404U 23014P   24021.94304478  .00000341  00000-0  36368-4 0  9994,2 55404  69.9989 225.5441 0002849 269.7616  90.3217 14.98332088 55551,6950.186,96.107,574.032,570.071,0.0
55404.0,STARLINK-5607,PAYLOAD,2024-01-22 00:14:07,14.98332054,0.000285,69.9989,225.3758,270.0311,90.0522,3.5181e-05,3.27e-06,0.0,0 STARLINK-5607,1 55404U 23014P   24022.00980474  .00000327  00000-0  35181-4 0  9994,2 55404  69.9989 225.3758 0002850 270.0311  90.0522 14.98332054 54625,6950.187,96.107,574.032,570.071,0.0
55404.0,STARLINK-5607,PAYLOAD,2024-01-22 22:40:00,14.98330461,0.0002831,69.9988,223.0191,268.7904,91.2931,1.2675e-05,5.8e-07,0.0,0 STARLINK-5607,1 55404U 23014P   24022.94444517  .00000058  00000-0  12675-4 0  9994,2 55404  69.9988 223.0191 0002831 268.7904  91.2931 14.98330461 55708,6950.191,96.107,574.024,570.089,0.0
55404.0,STARLINK-5607,PAYLOAD,2024-01-23 16:17:28,14.98332468,0.0002826,69.9989,221.1674,268.6781,91.4054,-1.1351e-05,-2.28e-06,0.0,0 STARLINK-5607,1 55404U 23014P   24023.67880365 -.00000228  00000-0 -11351-4 0  9991,2 55404  69.9989 221.1674 0002826 268.6781  91.4054 14.98332468 54874,6950.185,96.107,574.014,570.086,0.0
55404.0,STARLINK-5607,PAYLOAD,2024-01-23 22:42:00,14.98332226,0.0002842,69.999,220.4941,269.4378,90.6455,-1.2795e-05,-2.46e-06,0.0,0 STARLINK-5607,1 55404U 23014P   24023.94584336 -.00000246  00000-0 -12795-4 0  9993,2 55404  69.9990 220.4941 0002842 269.4378  90.6455 14.98332226 55851,6950.186,96.107,574.026,570.076,0.0
55404.0,STARLINK-5607,PAYLOAD,2024-01-24 14:43:21,14.98326992,0.0002774,69.9991,218.811,267.8874,92.1968,-3.1493e-05,-4.69e-06,0.0,0 STARLINK-5607,1 55404U 23014P   24024.61344711 -.00000469  00000-0 -31493-4 0  9992,2 55404  69.9991 218.8110 0002774 267.8874  92.1968 14.98326992 55958,6950.202,96.107,573.995,570.139,0.0
55404.0,STARLINK-5607,PAYLOAD,2024-01-24 19:31:46,14.98326851,0.000278,69.9994,218.3062,268.2408,91.8433,-3.1567e-05,-4.7e-06,0.0,0 STARLINK-5607,1 55404U 23014P   24024.81372752 -.00000470  00000-0 -31567-4 0  9994,2 55404  69.9994 218.3062 0002780 268.2408  91.8433 14.98326851 55044,6950.203,96.107,574.0,570.135,0.0
55404.0,STARLINK-5607,PAYLOAD,2024-01-24 22:44:02,14.98326333,0.0002795,69.9994,217.9696,268.648,91.4359,-3.7463e-05,-5.4e-06,0.0,0 STARLINK-5607,1 55404U 23014P   24024.94724827 -.00000540  00000-0 -37463-4 0  9991,2 55404  69.9994 217.9696 0002795 268.6480  91.4359 14.98326333 56007,6950.204,96.107,574.012,570.127,0.0
55404.0,STARLINK-5607,PAYLOAD,2024-01-25 14:45:22,14.98331602,0.0002866,69.9995,216.2857,270.0078,90.0753,1.1373e-05,4.3e-07,0.0,0 STARLINK-5607,1 55404U 23014P   24025.61484388  .00000043  00000-0  11373-4 0  9999,2 55404  69.9995 216.2857 0002866 270.0078  90.0753 14.98331602 56107,6950.188,96.107,574.045,570.061,0.0
55404.0,STARLINK-5607,PAYLOAD,2024-01-25 19:33:46,14.9833028,0.0002914,69.9995,215.7806,270.7217,89.3608,-6.6731e-06,-1.73e-06,0.0,0 STARLINK-5607,1 55404U 23014P   24025.81512512 -.00000173  00000-0 -66731-5 0  9997,2 55404  69.9995 215.7806 0002914 270.7217  89.3608 14.98330280 55190,6950.192,96.107,574.082,570.032,0.0
55404.0,STARLINK-5607,PAYLOAD,2024-01-25 22:46:02,14.98331763,0.0002894,69.9996,215.4444,270.0032,90.0796,9.8687e-06,2.5e-07,0.0,0 STARLINK-5607,1 55404U 23014P   24025.94864358  .00000025  00000-0  98687-5 0  9998,2 55404  69.9996 215.4444 0002894 270.0032  90.0796 14.98331763 56152,6950.187,96.107,574.064,570.041,0.0
55404.0,STARLINK-5607,PAYLOAD,2024-01-26 14:47:23,14.98331992,0.0003,69.9996,213.7612,271.8877,88.1939,7.0567e-05,7.49e-06,0.0,0 STARLINK-5607,1 55404U 23014P   24026.61624091  .00000749  00000-0  70567-4 0  9990,2 55404  69.9996 213.7612 0003000 271.8877  88.1939 14.98331992 56258,6950.187,96.107,574.137,569.967,0.0
55404.0,STARLINK-5607,PAYLOAD,2024-01-26 19:35:47,14.98332976,0.0002995,69.9999,213.2563,274.4355,85.6461,8.0362e-05,8.66e-06,0.0,0 STARLINK-5607,1 55404U 23014P   24026.81651987  .00000866  00000-0  80362-4 0  9990,2 55404  69.9999 213.2563 0002995 274.4355  85.6461 14.98332976 55347,6950.184,96.107,574.13,569.967,0.0
55404.0,STARLINK-5607,PAYLOAD,2024-01-27 13:13:16,14.98331059,0.0002933,70.0003,211.4047,276.1751,83.9074,-1.0285e-05,-2.16e-06,0.0,0 STARLINK-5607,1 55404U 23014P   24027.55088260 -.00000216  00000-0 -10285-4 0  9998,2 55404  70.0003 211.4047 0002933 276.1751  83.9074 14.98331059 56392,6950.19,96.107,574.093,570.016,0.0
55404.0,STARLINK-5607,PAYLOAD,2024-01-27 19:37:48,14.98330404,0.0002923,70.0003,210.7319,273.7819,86.3006,-1.8397e-05,-3.12e-06,0.0,0 STARLINK-5607,1 55404U 23014P   24027.81792278 -.00000312  00000-0 -18397-4 0  9997,2 55404  70.0003 210.7319 0002923 273.7819  86.3006 14.98330404 55498,6950.192,96.107,574.088,570.025,0.0
55404.0,STARLINK-5607,PAYLOAD,2024-01-28 14:51:25,14.98331817,0.00028,70.0006,208.7133,269.2806,90.8032,-4.1192e-05,-5.84e-06,0.0,0 STARLINK-5607,1 55404U 23014P   24028.61904129 -.00000584  00000-0 -41192-4 0  9996,2 55404  70.0006 208.7133 0002800 269.2806  90.8032 14.98331817 56558,6950.187,96.107,573.998,570.106,0.0
